#dP2024  9 19 18  0  0.00000000      96 __u+U IGS20 EXT  IAC
## 2332 410400.00000000   900.00000000 60572 0.7500000000000
+   53   G01G02G03G04G05G06G07G08G09G10G11G12G13G14G15G16G18
+        G19G20G21G22G23G24G25G26G27G28G29G30G31G32R01R02R03
+        R04R05R07R08R09R11R12R14R15R16R17R18R19R20R21R22R24
+        R25R26  0  0  0  0  0  0  0  0  0  0  0  0  0  0  0
+          0  0  0  0  0  0  0  0  0  0  0  0  0  0  0  0  0
++         3  8  7  6  7  7  8  8  7  8  9  7  8  7  7  8  8
++         9  7  7  8  7  8  7  7  8 10  7  8  8  7  8  7  8
++         7  7  8  7  8  8  8  8  7  7  8  7 10  8  7  8  7
++         7  9  0  0  0  0  0  0  0  0  0  0  0  0  0  0  0
++         0  0  0  0  0  0  0  0  0  0  0  0  0  0  0  0  0
%c M  cc GPS ccc cccc cccc cccc cccc ccccc ccccc ccccc ccccc
%c cc cc ccc ccc cccc cccc cccc cccc ccccc ccccc ccccc ccccc
%f  0.0000000  0.000000000  0.00000000000  0.000000000000000
%f  0.0000000  0.000000000  0.00000000000  0.000000000000000
%i    0    0    0    0      0      0      0      0         0
%i    0    0    0    0      0      0      0      0         0
/* IAC                                ULTRA-RAPID PREDICTION
/* S/V CLOCKS ARE ALIGNED TO GNSS TIME                      
/* G:C1WC2W R:C1PC2P E:C1XC5X C:C2IC6I J:C1CC2S             
/* PCV:IGS20_2317 OL/AL:FES2004  NONE     YN ORB:CoN CLK:CoN
*  2024 09 20  2  0  0.00000000
PG01      0.000000      0.000000      0.000000    192.935946
PG02  10536.086459 -20096.313467 -13056.411928   -354.436375
PG03  -2238.872854 -16502.690348 -20884.940609    543.666227
PG04    933.718664 -26321.553580  -2742.702189    446.884062
PG05 -14554.928005   8779.538896  20243.482447   -187.162332
PG06 -21477.002791   1875.777188 -15518.515772     18.950905
PG07  -7140.557390 -14036.259523  21890.442660    -35.871630
PG08   7430.773375 -21287.936647  13570.500005    358.297946
PG09  -7509.875845 -24347.858158   7292.725374    363.840879
PG10  24496.035624  10518.671349  -1931.491388   -130.928808
PG11 -23324.313354  12417.094502  -2279.293558   -736.434107
PG12  -2703.711405  15744.269715 -21505.123822   -539.317630
PG13 -13187.315065  14224.159881  17807.228897    677.386658
PG14 -23198.210486 -13109.577887   1489.712376    499.456347
PG15  -4391.867329  22516.343885  12723.816003    206.279941
PG16  18819.228206  -3609.689295  18239.169317   -176.412746
PG18   7220.720406  13084.142788  21973.020455   -654.296877
PG19 -14987.692378  -3419.345748 -21841.019285    540.282265
PG20 -22705.775690   3410.508308  13287.859570    370.464064
PG21  14787.686244 -19592.285469  -8235.041340    101.414807
PG22 -23830.892153  -9113.033113  -6385.874973    -63.531126
PG23  18590.440057  16049.167274  10420.040565    323.968071
PG24 -11125.708754  20884.212821 -12086.340825   -486.520730
PG25  10794.125336  18106.791975 -16654.844546    499.627500
PG26  25160.416034   2962.056879   8428.905889     74.995819
PG27  12970.493307 -11378.005813  19779.096193    -33.889027
PG28  20465.396918   -242.936686 -16943.223830   -417.412589
PG29   3479.734767  25733.156619   5215.614280   -576.732343
PG30 -16726.342691  -6325.389535  19864.427676   -318.050571
PG31  24043.124625  -9476.960832  -7180.234340   -224.486041
PG32  14470.705523  10536.753631 -19472.896011   -595.475999
PR01 -12100.208410   -372.233632  22447.046574     98.356967
PR02  -3089.537483  15654.029412  19964.436408    -24.741383
PR03   7845.037020  23544.038544   6083.341412    107.876820
PR04  13853.565077  18542.082311 -10721.257940    255.501104
PR05  12696.944248   3662.729307 -21819.565370    137.918139
PR07  -8137.710056 -23518.987687  -5428.514405     91.239752
PR08 -14132.967399 -18147.931476  11036.290012     -6.411499
PR09  14052.048388  -8867.764049  19343.551606    210.104067
PR11 -19493.995766  -8252.365336  14259.261275     11.396079
PR12 -25056.115481    239.082046  -4716.759487     45.054277
PR14   4311.474649  11250.832963 -22465.152067     26.947038
PR15  20626.001475   7845.502876 -12764.434993     75.712378
PR16  25070.136243   -240.325113   4608.654628     29.275004
PR17  -4426.731432  19128.045962  16265.379959    123.531187
PR18   7422.368558   7645.565497  23195.604991    162.895553
PR19  15471.583319  -5725.745195  19463.958886   -291.985249
PR20  16050.743981 -19776.494283   1089.969877   -119.341239
PR21   5237.634281 -19419.517426 -15708.456142   -135.918541
PR22  -8409.905729  -6964.594702 -23023.844120     42.676269
PR24 -14914.503618  20669.232225   -500.399389    -72.720079
PR25   4759.743302 -18967.535064 -16387.181582    -98.960611
PR26 -13967.093668 -19113.998506   9537.643831     33.934986
*  2024 09 20  2 15  0.00000000
PG01      0.000000      0.000000      0.000000    192.927214
PG02  11771.527460 -20858.021843 -10641.981145   -354.429195
PG03    -38.351931 -15560.636687 -21708.709737    543.678011
PG04   1215.022544 -25861.445657  -5563.719114    446.890398
PG05 -16641.227507   7864.886600  18990.307740   -187.163402
PG06 -19994.687400    700.061969 -17457.406255     18.927215
PG07  -5184.231190 -15390.088807  21477.610299    -35.867757
PG08   7904.688144 -19629.269931  15665.773180    358.309387
PG09  -7345.129892 -25064.649036   4545.116777    363.855390
PG10  24502.845468  10695.998154    952.084944   -130.940073
PG11 -23100.180622  11981.052218  -5108.884201   -736.437735
PG12  -4859.962891  14637.214181 -21905.472939   -539.320109
PG13 -13238.456006  12048.999778  19313.011441    677.388269
PG14 -22786.148533 -13224.639392   4275.068733    499.464018
PG15  -5083.262685  20973.800322  14854.574299    206.283918
PG16  20535.448316  -2504.425623  16565.149890   -176.403660
PG18   5161.790807  14483.153704  21653.446016   -654.298743
PG19 -14965.271293  -5852.729201 -21368.294837    540.286636
PG20 -23992.714770   2856.108848  10922.381625    370.463702
PG21  15645.952374 -19912.679248  -5467.503539    101.414076
PG22 -24239.325048  -9658.912090  -3590.845536    -63.534450
PG23  17313.053068  15688.011627  12868.100649    323.975595
PG24 -12225.365347  21457.978653  -9651.946202   -486.520377
PG25   8952.941832  17490.508725 -18331.218947    499.627500
PG26  25846.249885   3514.149462   5816.247044     74.988012
PG27  13349.091910  -9017.173538  20745.357651    -33.889121
PG28  18950.258145   1116.497202 -18591.301719   -417.424945
PG29   3255.243923  26180.243569   2379.259697   -576.730111
PG30 -14923.053398  -7750.674530  20758.358042   -318.044108
PG31  23401.532819  -8765.425100  -9778.805758   -224.485645
PG32  14601.268845  12717.382466 -18054.866528   -595.472649
PR01 -13436.147465  -2734.323695  21504.858763     98.358058
PR02  -4143.951699  13338.805670  21399.486741    -24.741611
PR03   7565.117452  22641.764970   9118.778391    107.877411
PR04  14508.871020  19494.626305  -7764.938731    255.502695
PR05  13914.282953   5978.430426 -20530.120251    137.918713
PR07  -7882.177507 -22678.083586  -8500.761213     91.240397
PR08 -14794.645185 -19129.797848   8104.638963     -6.411530
PR09  16320.225530  -8875.071838  17458.957324    210.106004
PR11 -17596.885933  -8062.062843  16637.482231     11.395182
PR12 -25451.679011    351.697556  -1540.407696     45.054689
PR14   1513.135633  11126.150413 -22887.514082     26.947097
PR15  18897.718781   7659.750349 -15297.809523     75.712077
PR16  25447.172326   -374.506333   1418.461132     29.275325
PR17  -5332.771556  20755.287768  13807.252182    123.534218
PR18   5855.464044  10006.019403  22744.306403    162.897218
PR19  13913.877532  -3763.727110  21052.231504   -291.986442
PR20  15679.194944 -19635.386643   4315.565853   -119.341795
PR21   6102.763040 -20987.645631 -13179.254538   -135.921412
PR22  -6775.038610  -9276.400394 -22746.027906     42.667857
PR24 -14645.268699  20532.699863  -3703.129816    -72.721464
PR25   5760.987998 -20555.573195 -13976.955970    -98.958171
PR26 -14557.188635 -19922.466726   6520.141651     33.949741
EOF
